STARLINK-3295           
1 50840C 22001AP  26114.04284722  .00042187  00000+0  26456-2 0  1140
2 50840  53.2167 335.5234 0001452  86.2368 212.3077 15.08815063    13
STARLINK-3300           
1 50841C 22001AQ  26113.98520833  .00009661  00000+0  60596-3 0  1132
2 50841  53.2167 335.7834 0001394  84.3843 200.9067 15.08825694    17
STARLINK-3302           
1 50842C 22001AR  26113.97687500  .00014195  00000+0  89069-3 0  1131
2 50842  53.2171 335.8203 0001495  81.1955 238.8908 15.08808353    12
STARLINK-3325           
1 50843C 22001AS  26114.04354167  .00531090  00000+0  20059-2 0  1143
2 50843  53.2157 309.7342 0001609 122.7981 223.8197 15.86734901    16
STARLINK-3326           
1 50844C 22001AT  26114.03520833  .00041075  00000+0  25752-2 0  1142
2 50844  53.2175 335.5608 0001325  81.0871 255.8461 15.08824620    10
STARLINK-3230           
1 50845C 22001AU  26113.98034722 -.00020350  00000+0 -12759-2 0  1130
2 50845  53.2167 335.8041 0001632  83.4377  75.4284 15.08852759    17
STARLINK-3308           
1 50846C 22001AV  26114.00395833  .00021905  00000+0  13738-2 0  1142
2 50846  53.2174 335.8153 0001465  88.1996  38.9222 15.08821242    12
STARLINK-3315           
1 50848C 22001AX  26113.99215278  .00011869  00000+0  74430-3 0  1139
2 50848  53.2174 335.7528 0001439  84.6298  58.4023 15.08830540    13
STARLINK-3311           
1 50849C 22001AY  26113.97062500  .00015421  00000+0  96739-3 0  1130
2 50849  53.2174 335.8490 0001434  87.6140 238.4324 15.08815761    19
STARLINK-3312           
1 50850C 22001AZ  26114.03451389 -.00021296  00000+0 -13352-2 0  1146
2 50850  53.2161 295.5612 0001725 117.0889 176.1375 15.08855836    17
STARLINK-3314           
1 50851C 22001BA  26114.01645833 -.00038315  00000+0 -24039-2 0  1148
2 50851  53.2171 335.5669 0001581  82.6512 252.5357 15.08837449    15
STARLINK-3366           
1 51104C 22005A   26114.04770833 -.00028461  00000+0 -17845-2 0  1144
2 51104  53.2151  85.5002 0001396  81.0270 278.9250 15.08857808    11
STARLINK-3350           
1 51105C 22005B   26113.96993056 -.00004368  00000+0 -27390-3 0  1135
2 51105  53.2160  85.8494 0001371  95.8195 341.4391 15.08844443    15
STARLINK-3176           
1 51106C 22005C   26113.97826389 -.00006754  00000+0 -42339-3 0  1132
2 51106  53.2156  85.8109 0001608  82.3585 160.1872 15.08851298    17
STARLINK-3362           
1 51108C 22005E   26113.97618056 -.00007363  00000+0 -46165-3 0  1132
2 51108  53.2169  85.8186 0001637  81.5918  49.6381 15.08847520    10
STARLINK-3358           
1 51109C 22005F   26113.98104167 -.00008587  00000+0 -53840-3 0  1134
2 51109  53.2151  85.7507 0001423  89.5000 328.1664 15.08848358    10
STARLINK-3344           
1 51110C 22005G   26113.99909722 -.00016989  00000+0 -10655-2 0  1138
2 51110  53.2165  85.6951 0001410  92.7362 223.1167 15.08842100    13
STARLINK-3173           
1 51111C 22005H   26113.99840278 -.00015140  00000+0 -94922-3 0  1137
2 51111  53.2150  85.7209 0001507  83.5570 348.4392 15.08853468    11
STARLINK-3374           
1 51112C 22005J   26113.99284722 -.00012010  00000+0 -75281-3 0  1134
2 51112  53.2164  85.7158 0001523  87.7584 208.7636 15.08860307    18
STARLINK-3372           
1 51113C 22005K   26114.00187500 -.00016332  00000+0 -10239-2 0  1147
2 51113  53.2153  85.7053 0001456  85.3243 305.5401 15.08855387    10
STARLINK-3375           
1 51114C 22005L   26113.99562500 -.00013982  00000+0 -87654-3 0  1135
2 51114  53.2170  85.7310 0001284  86.1807 170.7156 15.08854554    14
STARLINK-3397           
1 51115C 22005M   26114.01645833 -.00020676  00000+0 -12963-2 0  1140
2 51115  53.2151  85.6397 0001545  81.7307  68.3885 15.08856142    10
STARLINK-3243           
1 51116C 22005N   26114.05118056 -.00037149  00000+0 -23292-2 0  1147
2 51116  53.2159  85.4567 0001502  85.3744 188.2815 15.08862519    14
STARLINK-3391           
1 51117C 22005P   26113.97409722 -.00006723  00000+0 -42156-3 0  1135
2 51117  53.2157  85.7203 0001307  80.1107 339.7404 15.08846053    14
STARLINK-3394           
1 51118C 22005Q   26114.01923611 -.00021877  00000+0 -13716-2 0  1147
2 51118  53.2154  85.6281 0001564  80.6021  64.6204 15.08856384    12
STARLINK-3398           
1 51120C 22005S   26113.97548611 -.00007520  00000+0 -47147-3 0  1131
2 51120  53.2156  85.8348 0001429  92.3444 329.8905 15.08849775    12
STARLINK-3399           
1 51121C 22005T   26114.00812500 -.00018424  00000+0 -11551-2 0  1143
2 51121  53.2150  85.6881 0001476  85.4325  74.1889 15.08853625    10
STARLINK-3392           
1 51123C 22005V   26113.97340278 -.00006476  00000+0 -40621-3 0  1132
2 51123  53.2157  85.8337 0001374  94.1929 341.8945 15.08833178    19
STARLINK-3389           
1 51124C 22005W   26113.99562500 -.00004036  00000+0 -25310-3 0  1137
2 51124  53.2147  95.7341 0001599  80.5151 241.2828 15.08836501    15
STARLINK-3387           
1 51125C 22005X   26113.99701389 -.00005377  00000+0 -33708-3 0  1137
2 51125  53.2153  95.7378 0001387  92.0298 292.2018 15.08847989    17
STARLINK-3386           
1 51126C 22005Y   26114.01368056 -.00011954  00000+0 -74949-3 0  1143
2 51126  53.2148  95.6637 0001316  86.5054 348.3004 15.08850990    13
STARLINK-3370           
1 51127C 22005Z   26114.01437500 -.00012650  00000+0 -79344-3 0  1143
2 51127  53.2150  95.6605 0001611  85.2880  13.2522 15.08835480    13
STARLINK-3400           
1 51128C 22005AA  26113.97062500  .00008369  00000+0  52458-3 0  1138
2 51128  53.2162  95.8466 0001435  90.7649 235.1980 15.08850981    18
STARLINK-3396           
1 51129C 22005AB  26114.00673611 -.00008535  00000+0 -53532-3 0  1147
2 51129  53.2146  95.6848 0001415  98.1989 278.8953 15.08835952    15
STARLINK-3395           
1 51130C 22005AC  26113.94076389  .00017366  00000+0  10888-2 0  1135
2 51130  53.2155  95.9802 0001301  86.9147  16.8204 15.08834373    10
STARLINK-3388           
1 51131C 22005AD  26113.98173611  .00002808  00000+0  17615-3 0  1137
2 51131  53.2160  95.7961 0001353  98.2102 268.3063 15.08822078    11
STARLINK-3393           
1 51132C 22005AE  26113.97062500  .00005208  00000+0  32651-3 0  1135
2 51132  53.2158  95.8461 0001166  84.4137 201.6082 15.08841179    16
STARLINK-3356           
1 51133C 22005AF  26114.03451389 -.00018700  00000+0 -11724-2 0  1142
2 51133  53.2164  95.5586 0001385  84.9439 248.3065 15.08855810    18
STARLINK-3363           
1 51135C 22005AH  26114.00673611 -.00007476  00000+0 -46866-3 0  1149
2 51135  53.2161  95.5772 0001595  84.0294 173.1278 15.08853748    16
STARLINK-3253           
1 51136C 22005AJ  26113.96506944  .00011800  00000+0  73979-3 0  1136
2 51136  53.2150  95.6678 0001333  80.3107 355.6630 15.08839428    11
STARLINK-3180           
1 51137C 22005AK  26114.00881944 -.00008403  00000+0 -52683-3 0  1146
2 51137  53.2160  95.6718 0001404  80.6301 192.9787 15.08849430    15
STARLINK-3177           
1 51138C 22005AL  26114.01923611 -.00014719  00000+0 -92275-3 0  1144
2 51138  53.2166  95.6250 0001572  78.5588 211.6645 15.08854034    10
STARLINK-3172           
1 51139C 22005AM  26114.04006944 -.00020705  00000+0 -12970-2 0  1144
2 51139  53.2149  95.5438 0001310  88.0642  30.1933 15.08885820    17
STARLINK-3175           
1 51140C 22005AN  26113.97965278  .00005438  00000+0  34094-3 0  1136
2 51140  53.2163  95.8128 0001564  81.0538   8.8397 15.08843631    12
STARLINK-3179           
1 51141C 22005AP  26113.96993056  .00006406  00000+0  40164-3 0  1132
2 51141  53.2144  95.8493 0001442  77.9890  64.2695 15.08842450    12
STARLINK-3369           
1 51142C 22005AQ  26114.04215278 -.00010966  00000+0 -47512-3 0  1149
2 51142  53.2119  74.5408 0005990  35.6789  63.9324 15.21859305    12
STARLINK-3184           
1 51143C 22005AR  26113.98034722  .00015783  00000+0  98949-3 0  1134
2 51143  53.2159 105.8018 0001390  86.7632 197.1077 15.08838475    11
STARLINK-3185           
1 51144C 22005AS  26113.96784722  .00009269  00000+0  58113-3 0  1136
2 51144  53.2147  95.8685 0001404  88.8780  16.8492 15.08838384    17
STARLINK-3354           
1 51146C 22005AU  26113.97062500  .00009531  00000+0  59759-3 0  1131
2 51146  53.2157  95.8533 0001347  78.3336   2.4917 15.08839314    16
STARLINK-3352           
1 51147C 22005AV  26113.99701389  .00006903  00000+0  24759-3 0  1131
2 51147  53.1892  87.6259 0004331  67.9150 151.4331 15.28157347    16
STARLINK-3359           
1 51148C 22005AW  26114.05881944  .00000700  00000+0  41428-4 0  1149
2 51148  53.2148 105.2453 0002383  31.8000 106.0495 15.10928236    15
STARLINK-3360           
1 51149C 22005AX  26113.98312500  .00013079  00000+0  82008-3 0  1138
2 51149  53.2146 105.6066 0001407  81.9276  11.9631 15.08835944    11
STARLINK-3357           
1 51150C 22005AY  26113.97131944  .00009588  00000+0  60125-3 0  1136
2 51150  53.2167  95.4550 0001369 101.7487 268.3080 15.08833004    13
STARLINK-3364           
1 51152C 22005BA  26114.02895833 -.00008347  00000+0 -52278-3 0  1144
2 51152  53.2156 105.1996 0001577  86.9077  21.3683 15.08886637    12
STARLINK-3181           
1 51461C 22010F   26114.00743056 -.00025299  00000+0 -15863-2 0  1143
2 51461  53.2155  75.6811 0001419  87.6831 248.3644 15.08854575    16
STARLINK-3166           
1 51462C 22010G   26114.02131944 -.00029985  00000+0 -18800-2 0  1143
2 51462  53.2156  75.6281 0001460 107.2447 318.9698 15.08858440    15
STARLINK-3419           
1 51463C 22010H   26114.01159722 -.00026012  00000+0 -16309-2 0  1147
2 51463  53.2164  75.6607 0001480  99.2223  59.4714 15.08858307    19
STARLINK-3189           
1 51464C 22010J   26114.05048611 -.00029072  00000+0 -18229-2 0  1148
2 51464  53.2160  75.4891 0001598  85.1504 184.8998 15.08856197    17
STARLINK-3401           
1 51465C 22010K   26114.00881944 -.00028903  00000+0 -18123-2 0  1143
2 51465  53.2161  75.6748 0001582  90.7391 332.8537 15.08855058    10
